NORAD_CAT_ID,OBJECT_NAME,OBJECT_TYPE,EPOCH,MEAN_MOTION,ECCENTRICITY,INCLINATION,RA_OF_ASC_NODE,ARG_OF_PERICENTER,MEAN_ANOMALY,BSTAR,MEAN_MOTION_DOT,MEAN_MOTION_DDOT,TLE_LINE0,TLE_LINE1,TLE_LINE2,SEMIMAJOR_AXIS,PERIOD,APOGEE,PERIGEE,DECAYED
52132.0,STARLINK-3718,PAYLOAD,2023-12-18 13:54:03,15.08845248,0.0001445,53.2165,114.8232,94.7695,265.3462,6.3256e-06,-1.87e-06,0.0,0 STARLINK-3718,1 52132U 22029AW  23352.57920363 -.00000187  00000-0  63256-5 0  9992,2 52132  53.2165 114.8232 0001445  94.7695 265.3462 15.08845248 98338,6917.864,95.437,540.729,538.73,0.0
52132.0,STARLINK-3718,PAYLOAD,2023-12-19 13:44:50,15.08833122,0.0001528,53.2161,110.356,66.2174,293.8978,0.00020604,2.992e-05,0.0,0 STARLINK-3718,1 52132U 22029AW  23353.57280501  .00002992  00000-0  20604-3 0  9999,2 52132  53.2161 110.3560 0001528  66.2174 293.8978 15.08833122 98489,6917.901,95.438,540.823,538.709,0.0
52132.0,STARLINK-3718,PAYLOAD,2023-12-19 15:20:13,15.08823039,0.0001569,53.2173,110.0701,79.1071,281.0097,0.00041568,6.331e-05,0.0,0 STARLINK-3718,1 52132U 22029AW  23353.63904591  .00006331  00000-0  41568-3 0  9991,2 52132  53.2173 110.0701 0001569  79.1071 281.0097 15.08823039 98498,6917.932,95.439,540.883,538.712,0.0
52132.0,STARLINK-3718,PAYLOAD,2023-12-20 13:35:37,15.08846679,0.0001625,53.2177,105.9029,100.9286,259.1889,-0.00015932,-2.823e-05,0.0,0 STARLINK-3718,1 52132U 22029AW  23354.56641145 -.00002823  00000-0 -15932-3 0  9997,2 52132  53.2177 105.9029 0001625 100.9286 259.1889 15.08846679 98638,6917.86,95.437,540.849,538.601,0.0
52132.0,STARLINK-3718,PAYLOAD,2023-12-20 15:11:01,15.08836752,0.0001591,53.218,105.6045,77.8639,282.2531,-3.9065e-06,-3.5e-06,0.0,0 STARLINK-3718,1 52132U 22029AW  23354.63265286 -.00000350  00000-0 -39065-5 0  9991,2 52132  53.2180 105.6045 0001591  77.8639 282.2531 15.08836752 98646,6917.89,95.438,540.856,538.655,0.0
52132.0,STARLINK-3718,PAYLOAD,2023-12-21 11:51:01,15.08844404,0.0001486,53.2167,101.7416,69.0334,291.0817,-5.0793e-07,-2.96e-06,0.0,0 STARLINK-3718,1 52132U 22029AW  23355.49377151 -.00000296  00000-0 -50793-6 0  9992,2 52132  53.2167 101.7416 0001486  69.0334 291.0817 15.08844404 98770,6917.867,95.437,540.76,538.704,0.0
52132.0,STARLINK-3718,PAYLOAD,2023-12-21 13:26:24,15.08844916,0.0001751,53.2157,101.4498,55.7563,304.3595,3.3464e-05,2.45e-06,0.0,0 STARLINK-3718,1 52132U 22029AW  23355.56001092  .00000245  00000-0  33464-4 0  9994,2 52132  53.2157 101.4498 0001751  55.7563 304.3595 15.08844916 98787,6917.865,95.437,540.942,538.519,0.0
52132.0,STARLINK-3718,PAYLOAD,2023-12-21 15:01:47,15.08850847,0.0001569,53.2169,101.1467,71.734,288.3822,7.4713e-05,9.02e-06,0.0,0 STARLINK-3718,1 52132U 22029AW  23355.62624565  .00000902  00000-0  74713-4 0  9999,2 52132  53.2169 101.1467 0001569  71.7340 288.3822 15.08850847 98796,6917.847,95.437,540.798,538.627,0.0
52132.0,STARLINK-3718,PAYLOAD,2023-12-22 11:41:48,15.08839701,0.0001422,53.2184,97.2775,82.767,277.3484,0.00010077,1.316e-05,0.0,0 STARLINK-3718,1 52132U 22029AW  23356.48737223  .00001316  00000-0  10077-3 0  9992,2 52132  53.2184  97.2775 0001422  82.7670 277.3484 15.08839701 98929,6917.881,95.438,540.73,538.763,0.0
52132.0,STARLINK-3718,PAYLOAD,2023-12-22 13:17:11,15.08844291,0.0001579,53.2169,96.9837,71.8747,288.2417,0.00016057,2.269e-05,0.0,0 STARLINK-3718,1 52132U 22029AW  23356.55360964  .00002269  00000-0  16057-3 0  9996,2 52132  53.2169  96.9837 0001579  71.8747 288.2417 15.08844291 98932,6917.867,95.437,540.825,538.64,0.0
52132.0,STARLINK-3718,PAYLOAD,2023-12-23 13:07:58,15.08848375,0.0001392,53.2163,92.524,87.7965,272.3186,6.2553e-05,7.08e-06,0.0,0 STARLINK-3718,1 52132U 22029AW  23357.54720876  .00000708  00000-0  62553-4 0  9997,2 52132  53.2163  92.5240 0001392  87.7965 272.3186 15.08848375 99088,6917.855,95.437,540.683,538.757,0.0
52132.0,STARLINK-3718,PAYLOAD,2023-12-23 16:18:44,15.0884991,0.0001412,53.2164,91.9284,91.8718,268.2436,7.2279e-05,8.63e-06,0.0,0 STARLINK-3718,1 52132U 22029AW  23357.67968656  .00000863  00000-0  72279-4 0  9999,2 52132  53.2164  91.9284 0001412  91.8718 268.2436 15.08849910 99106,6917.85,95.437,540.692,538.738,0.0
52132.0,STARLINK-3718,PAYLOAD,2023-12-24 11:23:22,15.08846677,0.0001386,53.2166,88.3614,74.0613,286.0532,3.8112e-05,3.19e-06,0.0,0 STARLINK-3718,1 52132U 22029AW  23358.47457017  .00000319  00000-0  38112-4 0  9996,2 52132  53.2166  88.3614 0001386  74.0613 286.0532 15.08846677 99227,6917.86,95.437,540.684,538.766,0.0
52132.0,STARLINK-3718,PAYLOAD,2023-12-25 11:14:10,15.08840742,0.0001295,53.2164,83.9018,77.4833,282.6304,7.0637e-05,8.36e-06,0.0,0 STARLINK-3718,1 52132U 22029AW  23359.46817290  .00000836  00000-0  70637-4 0  9991,2 52132  53.2164  83.9018 0001295  77.4833 282.6304 15.08840742 99376,6917.878,95.438,540.639,538.847,0.0
52132.0,STARLINK-3718,PAYLOAD,2023-12-25 12:49:32,15.08844445,0.0001286,53.2163,83.6033,90.7314,269.3825,9.9246e-05,1.292e-05,0.0,0 STARLINK-3718,1 52132U 22029AW  23359.53440902  .00001292  00000-0  99246-4 0  9995,2 52132  53.2163  83.6033 0001286  90.7314 269.3825 15.08844445 99386,6917.867,95.437,540.621,538.842,0.0
52132.0,STARLINK-3718,PAYLOAD,2023-12-26 11:04:57,15.08833867,0.0001191,53.2166,79.4403,77.753,282.3595,-1.2523e-05,-4.87e-06,0.0,0 STARLINK-3718,1 52132U 22029AW  23360.46178173 -.00000487  00000-0 -12523-4 0  9997,2 52132  53.2166  79.4403 0001191  77.7530 282.3595 15.08833867 99524,6917.899,95.438,540.588,538.94,0.0
52132.0,STARLINK-3718,PAYLOAD,2023-12-27 10:55:44,15.08843905,0.0001232,53.2166,74.9783,94.0408,266.0725,6.1642e-05,6.93e-06,0.0,0 STARLINK-3718,1 52132U 22029AW  23361.45537602  .00000693  00000-0  61642-4 0  9996,2 52132  53.2166  74.9783 0001232  94.0408 266.0725 15.08843905 99671,6917.868,95.437,540.586,538.881,0.0
52132.0,STARLINK-3718,PAYLOAD,2023-12-28 04:24:59,15.08835657,0.0001242,53.2166,71.7086,76.3497,283.7634,0.00012764,1.744e-05,0.0,0 STARLINK-3718,1 52132U 22029AW  23362.18402126  .00001744  00000-0  12764-3 0  9997,2 52132  53.2166  71.7086 0001242  76.3497 283.7634 15.08835657 99786,6917.894,95.438,540.618,538.899,0.0
52132.0,STARLINK-3718,PAYLOAD,2023-12-28 12:21:54,15.08839061,0.0001302,53.2168,70.2218,82.3449,277.7691,0.00018453,2.65e-05,0.0,0 STARLINK-3718,1 52132U 22029AW  23362.51521940  .00002650  00000-0  18453-3 0  9998,2 52132  53.2168  70.2218 0001302  82.3449 277.7691 15.08839061 99835,6917.883,95.438,540.649,538.848,0.0
52132.0,STARLINK-3718,PAYLOAD,2023-12-29 10:37:19,15.08843399,0.0001307,53.2171,66.0565,86.9306,273.1836,1.7245e-05,-1.3e-07,0.0,0 STARLINK-3718,1 52132U 22029AW  23363.44258202 -.00000013  00000-0  17245-4 0  9990,2 52132  53.2171  66.0565 0001307  86.9306 273.1836 15.08843399 99979,6917.87,95.437,540.639,538.831,0.0
52132.0,STARLINK-3718,PAYLOAD,2023-12-30 13:38:51,15.08853108,0.0001305,53.2166,60.9984,99.2926,260.8213,8.8229e-05,1.117e-05,0.0,0 STARLINK-3718,1 52132U 22029AW  23364.56865178  .00001117  00000-0  88229-4 0  9995,2 52132  53.2166  60.9984 0001305  99.2926 260.8213 15.08853108100147,6917.84,95.437,540.608,538.803,0.0
52132.0,STARLINK-3718,PAYLOAD,2023-12-30 23:11:10,15.08841028,0.0001632,53.2166,59.2117,125.1645,234.9501,0.00011827,1.595e-05,0.0,0 STARLINK-3718,1 52132U 22029AW  23364.96609559  .00001595  00000-0  11827-3 0  9997,2 52132  53.2166  59.2117 0001632 125.1645 234.9501 15.08841028100203,6917.877,95.437,540.871,538.613,0.0
52132.0,STARLINK-3718,PAYLOAD,2023-12-31 13:29:38,15.08843579,0.0001395,53.2163,56.541,98.0945,262.0205,0.00010553,1.392e-05,0.0,0 STARLINK-3718,1 52132U 22029AW  23365.56225677  .00001392  00000-0  10553-3 0  9999,2 52132  53.2163  56.5410 0001395  98.0945 262.0205 15.08843579100298,6917.869,95.437,540.699,538.769,0.0
52132.0,STARLINK-3718,PAYLOAD,2024-01-01 03:48:08,15.08837303,0.0001361,53.2158,53.8644,92.544,267.5707,-9.7151e-05,-1.834e-05,0.0,0 STARLINK-3718,1 52132U 22029AW  24001.15842610 -.00001834  00000-0 -97151-4 0  9997,2 52132  53.2158  53.8644 0001361  92.5440 267.5707 15.08837303100388,6917.889,95.438,540.695,538.812,0.0
52132.0,STARLINK-3718,PAYLOAD,2024-01-01 08:34:17,15.08838848,0.0001378,53.2161,52.9723,96.6093,263.5056,-8.4478e-05,-1.632e-05,0.0,0 STARLINK-3718,1 52132U 22029AW  24001.35714467 -.00001632  00000-0 -84478-4 0  9991,2 52132  53.2161  52.9723 0001378  96.6093 263.5056 15.08838848100419,6917.884,95.438,540.702,538.796,0.0
52132.0,STARLINK-3718,PAYLOAD,2024-01-02 10:00:28,15.08830728,0.0001451,53.2165,48.2166,56.7563,303.3568,8.6804e-07,-2.74e-06,0.0,0 STARLINK-3718,1 52132U 22029AW  24002.41699177 -.00000274  00000-0  86804-6 0  9996,2 52132  53.2165  48.2166 0001451  56.7563 303.3568 15.08830728100570,6917.909,95.438,540.778,538.77,0.0
52132.0,STARLINK-3718,PAYLOAD,2024-01-03 08:15:52,15.08828978,0.0001393,53.2177,44.0549,93.181,266.9341,9.3933e-05,1.207e-05,0.0,0 STARLINK-3718,1 52132U 22029AW  24003.34435709  .00001207  00000-0  93933-4 0  9993,2 52132  53.2177  44.0549 0001393  93.1810 266.9341 15.08828978100710,6917.914,95.438,540.743,538.815,0.0
52132.0,STARLINK-3718,PAYLOAD,2024-01-04 00:09:43,15.08857765,0.0001369,53.2182,41.0846,90.6249,269.49,-7.0385e-05,-1.409e-05,0.0,0 STARLINK-3718,1 52132U 22029AW  24004.00674791 -.00001409  00000-0 -70385-4 0  9995,2 52132  53.2182  41.0846 0001369  90.6249 269.4900 15.08857765100810,6917.826,95.436,540.638,538.744,0.0
52132.0,STARLINK-3718,PAYLOAD,2024-01-04 11:17:24,15.08851803,0.0001406,53.2174,38.999,88.7895,271.3259,0.00023325,3.427e-05,0.0,0 STARLINK-3718,1 52132U 22029AW  24004.47042128  .00003427  00000-0  23325-3 0  9990,2 52132  53.2174  38.9990 0001406  88.7895 271.3259 15.08851803100886,6917.844,95.437,540.682,538.737,0.0
52132.0,STARLINK-3718,PAYLOAD,2024-01-05 01:35:53,15.08840386,0.0001777,53.2174,36.3231,81.4874,278.632,0.00011651,1.567e-05,0.0,0 STARLINK-3718,1 52132U 22029AW  24005.06659506  .00001567  00000-0  11651-3 0  9992,2 52132  53.2174  36.3231 0001777  81.4874 278.6320 15.08840386100977,6917.879,95.438,540.974,538.515,0.0
